GPS BIIR-2  (PRN 13)    
1 24876C 97035A   22085.82645833 -.00000000  00000-0  00000-0 0   854
2 24876  55.4961 158.8975 0056329  52.4961 112.9545  2.00563716    12
GPS BIIR-4  (PRN 20)    
1 26360C 00025A   22085.82645833 -.00000000  00000-0  00000-0 0   857
2 26360  53.9931  82.2782 0050392 183.5954  66.2604  2.00551048    12
GPS BIIR-6  (PRN 22)    
1 26605C 00071A   22085.82645833 -.00000000  00000-0  00000-0 0   850
2 26605  55.0787 155.9258 0133567 253.4784 130.3119  2.00563988    16
GPS BIIR-8  (PRN 16)    
1 27663C 03005A   22085.82645833  .00000000  00000-0  00000-0 0   854
2 27663  55.5702 276.3391 0126392  40.3874 192.6948  2.00569055    12
GPS BIIR-9  (PRN 21)    
1 27704C 03010A   22085.82645833 -.00000000  00000-0  00000-0 0   857
2 27704  54.9949  26.6527 0246951 303.5223 149.1747  2.00576036    18
GPS BIIR-11 (PRN 19)    
1 28190C 04009A   22085.82645833  .00000000  00000-0  00000-0 0   855
2 28190  56.0496 337.3022 0088819 116.6249 274.2419  2.00561848    19
GPS BIIR-13 (PRN 02)    
1 28474C 04045A   22085.82645833 -.00000000  00000-0  00000-0 0   851
2 28474  55.3235  26.7605 0208120 277.9192  21.2042  2.00568443    10
GPS BIIRM-1 (PRN 17)    
1 28874C 05038A   22085.82645833  .00000000  00000-0  00000-0 0   857
2 28874  56.1192 334.7326 0137465 274.5082 135.9210  2.00551634    15
GPS BIIRM-2 (PRN 31)    
1 29486C 06042A   22085.82645833  .00000000  00000-0  00000-0 0   853
2 29486  54.7271 212.5583 0103628  20.8490 309.4497  2.00559013    18
GPS BIIRM-3 (PRN 12)    
1 29601C 06052A   22085.82645833  .00000000  00000-0  00000-0 0   853
2 29601  55.5748 275.2739 0085013  71.8745 298.7159  2.00574479    18
GPS BIIRM-4 (PRN 15)    
1 32260C 07047A   22085.82645833 -.00000000  00000-0  00000-0 0   854
2 32260  53.2886 143.9676 0137420  61.5565  85.1255  2.00553329    14
GPS BIIRM-5 (PRN 29)    
1 32384C 07062A   22085.82645833  .00000000  00000-0  00000-0 0   857
2 32384  56.2355 335.4831 0017908 132.3307 143.6129  2.00557052    12
GPS BIIRM-6 (PRN 07)    
1 32711C 08012A   22085.82645833  .00000000  00000-0  00000-0 0   857
2 32711  54.4855 211.5132 0159473 229.7291 333.9368  2.00562364    17
GPS BIIRM-8 (PRN 05)    
1 35752C 09043A   22085.82645833 -.00000000  00000-0  00000-0 0   851
2 35752  55.0094  88.8526 0056790  56.4533 166.8769  2.00561511    12
GPS BIIF-1  (PRN 25)    
1 36585C 10022A   22085.82645833  .00000000  00000-0  00000-0 0   854
2 36585  54.8563 270.8502 0103661  56.1324 282.8354  2.00560729    16
GPS BIIF-2  (PRN 01)    
1 37753C 11036A   22085.82645833 -.00000000  00000-0  00000-0 0   859
2 37753  56.5706  31.9215 0114552  50.1581  13.7640  2.00564572    18
GPS BIIF-3  (PRN 24)    
1 38833C 12053A   22085.82645833  .00000000  00000-0  00000-0 0   858
2 38833  53.5385 206.7350 0122399  45.8204  30.6696  2.00560608    16
GPS BIIF-4  (PRN 27)    
1 39166C 13023A   22085.82645833  .00000000  00000-0  00000-0 0   856
2 39166  55.7498 331.1374 0102878  36.6548 140.9612  2.00566355    11
GPS BIIF-5  (PRN 30)    
1 39533C 14008A   22085.82645833  .00000000  00000-0  00000-0 0   858
2 39533  53.6352 212.2317 0057091 205.4855 335.4222  2.00549008    18
GPS BIIF-6  (PRN 06)    
1 39741C 14026A   22085.82645833 -.00000000  00000-0  00000-0 0   850
2 39741  56.5340  31.4473 0028578 305.2910  31.8031  2.00561636    17
GPS BIIF-7  (PRN 09)    
1 40105C 14045A   22085.82645833 -.00000000  00000-0  00000-0 0   857
2 40105  54.6706 150.1036 0019276 110.0431 162.3057  2.00572405    11
GPS BIIF-8  (PRN 03)    
1 40294C 14068A   22085.82645833 -.00000000  00000-0  00000-0 0   851
2 40294  55.7537  91.1975 0037758  51.9714 310.4016  2.00565736    12
GPS BIIF-9  (PRN 26)    
1 40534C 15013A   22085.82645833  .00000000  00000-0  00000-0 0   858
2 40534  53.7587 268.1151 0068542  20.2166 246.2614  2.00557154    14
GPS BIIF-10 (PRN 08)    
1 40730C 15033A   22085.82645833  .00000000  00000-0  00000-0 0   858
2 40730  55.2504 330.0056 0073804   6.0505 142.1684  2.00556211    11
GPS BIIF-11 (PRN 10)    
1 41019C 15062A   22085.82645833 -.00000000  00000-0  00000-0 0   852
2 41019  55.7434  91.0383 0077116 218.2352 254.6580  2.00562835    16
GPS BIIF-12 (PRN 32)    
1 41328C 16007A   22085.82645833 -.00000000  00000-0  00000-0 0   855
2 41328  54.8907 150.7554 0059796 228.8894 174.8378  2.00574432    13
GPS BIII-1  (PRN 04)    
1 43873C 18109A   22085.82645833 -.00000000  00000-0  00000-0 0   857
2 43873  55.0710 153.1562 0018096 195.1274 105.5198  2.00567760    14
GPS BIII-2  (PRN 18)    
1 44506C 19056A   22085.82645833 -.00000000  00000-0  00000-0 0   853
2 44506  55.6425  32.3356 0021527 182.2987  21.5498  2.00570870    13
GPS BIII-3  (PRN 23)    
1 45854C 20041A   22085.82645833 -.00000000  00000-0  00000-0 0   856
2 45854  55.4610  89.6028 0020165 178.5360 323.3145  2.00559931    12
GPS BIII-4  (PRN 14)    
1 46826C 20078A   22085.82645833  .00000000  00000-0  00000-0 0   855
2 46826  54.6243 273.4447 0015966 182.0894 292.7861  2.00565465    11
GPS BIII-5  (PRN 11)    
1 48859C 21054A   22085.82645833 -.00000000  00000-0  00000-0 0   859
2 48859  55.1462  34.3761 0002874 201.8707  95.6530  2.00550191    11
